[{"OBJECT_NAME":"STARLINK-5515","OBJECT_ID":"2023-083J","EPOCH":"2026-03-08T02:52:14.913120","MEAN_MOTION":15.02539897,"ECCENTRICITY":0.00013327,"INCLINATION":43.0045,"RA_OF_ASC_NODE":90.3545,"ARG_OF_PERICENTER":261.8232,"MEAN_ANOMALY":98.2459,"EPHEMERIS_TYPE":0,"CLASSIFICATION_TYPE":"U","NORAD_CAT_ID":56884,"ELEMENT_SET_NO":999,"REV_AT_EPOCH":15143,"BSTAR":3.5209572e-5,"MEAN_MOTION_DOT":2.72e-6,"MEAN_MOTION_DDOT":0},{"OBJECT_NAME":"CZ-4 DEB","OBJECT_ID":"2007-042E","EPOCH":"2026-03-09T05:05:13.801056","MEAN_MOTION":14.89671222,"ECCENTRICITY":0.00640153,"INCLINATION":98.6325,"RA_OF_ASC_NODE":167.9775,"ARG_OF_PERICENTER":42.5531,"MEAN_ANOMALY":318.0619,"EPHEMERIS_TYPE":0,"CLASSIFICATION_TYPE":"U","NORAD_CAT_ID":35397,"ELEMENT_SET_NO":999,"REV_AT_EPOCH":97028,"BSTAR":0.0012361728,"MEAN_MOTION_DOT":0.00012236,"MEAN_MOTION_DDOT":0}]
